*******************************************************************************
 Revised: Feb 06, 2023         Parker Solar Probe / Sun                    -96
                         http://parkersolarprobe.jhuapl.edu/ 

 BACKGROUND:
  The Parker Solar Probe Mission will use seven Venus gravity assist flybys 
  over nearly seven years to gradually bring the spacecraft's trajectory closer
  to the Sun, which it will orbit at least 24 times with a final solar orbit
  period of 88 days.

  The spacecraft will fly through the Sun's outer corona, 5.9 million km from 
  the surface (8.5 solar radii).

  The orbit will be highly elliptical to minimize the time spent closest
  to the Sun, where incident solar radiation will be approximately 520 times 
  the intensity at Earth and temperatures near 2500 deg. F (1377 C).
 
 LAUNCH
  Date:           2018-Aug-12 07:31 UTC from NASA Kennedy Space Center
                  Complex 37
  Launch vehicle: Delta IV Heavy with Upper Stage

 EVENTS
  2018
    2018-Oct-03: Venus Flyby #1 @ 8:44 UTC
    2018-Nov-06: Perihelion #1 @ 03:27 UTC
  2019
    2019-Jan-19: Aphelion #1
    2019-Jan-20: Second orbit begins
    2019-Apr-04: Perihelion #2
    2019-Sep-01: Perihelion #3
    2019-Dec-26: Venus flyby #2
  2020
    2020-Jan-29: Perihelion #4
    2020-Jun-07: Perihelion #5
    2020-Jul-11: Venus flyby #3
    2020-Sep-27: Perihelion #6 
  2021
    2021-Jan-17: Perihelion #7
    2021-Feb-20: Venus flyby #4
    2021-Apr-29: Perihelion #8
    2021-Aug-09: Perihelion #9 
    2021-Oct-16: Venus flyby #5
    2021-Nov-21: Perihelion #10
  2022
    2022-Feb-25: Perihelion #11
    2022-Jun-01: Perihelion #12
    2022-Sep-06: Perihelion #13
    2022-Dec-11: Perihelion #14
  2023
    2023-Mar-17: Perihelion #15
    2023-Jun-22: Perihelion #16
    2023-Aug-21: Venus flyby #6
    2023-Sep-27: Perihelion #17
    2023-Dec-29: Perihelion #18
  2024
    2024-Mar-30: Perihelion #19
    2024-Jun-30: Perihelion #20
    2024-Sep-30: Perihelion #21
    2024-Nov-06: Venus flyby #7 (last one)
    2024-Dec-24: Perihelion #22 (first close approach)
  2025
    2025-Mar-22: Perihelion #23
    2025-Jun-19: Perihelion #24

 GOALS
  * Determine the structure and dynamics of the magnetic fields at the 
     sources of solar wind.
  * Trace the flow of energy that heats the corona and accelerates the solar 
     wind.
  * Determine what mechanisms accelerate and transport energetic particles.
  * Explore dusty plasma near the Sun and its influence on solar wind and 
     solar energetic particles formation.

 SPACECRAFT TRAJECTORY 
  Fit to post-launch tracking data 2018(Aug)-2021(Nov). Reference planning 
  trajectory for times after Nov 16, 2021.

  NOTE: the reference trajectory will be updated when revised instead of 
   presenting more-frequent but short-term local OD reconstructions.

  Name                                      Start (TDB)         End (TDB) 
  ---------------------------------------  -----------------  -----------------
  spp_nom_20180812_20250831_v039_RO6       2018-Aug-12 08:17  2022-Dec-20 00:01
  spp_nom_20221220_20280201_ext02.V0.1     2022-Dec-20 00:01  2028-Feb-01 00:00
*******************************************************************************


*******************************************************************************
Ephemeris / WWW_USER Mon May  8 00:56:48 2023 Pasadena, USA      / Horizons
*******************************************************************************
Target body name: Parker Solar Probe (spacecraft) (-96) {source: Parker_Solar_Probe}
Center body name: Solar System Barycenter (0)     {source: DE441}
Center-site name: BODY CENTER
*******************************************************************************
Start time      : A.D. 2018-Aug-12 23:59:00.0000 TDB
Stop  time      : A.D. 2023-Apr-17 23:59:00.0000 TDB
Step-size       : 1440 minutes
*******************************************************************************
Center geodetic : 0.0, 0.0, 0.0                   {E-lon(deg),Lat(deg),Alt(km)}
Center cylindric: 0.0, 0.0, 0.0                   {E-lon(deg),Dxy(km),Dz(km)}
Center radii    : (undefined)
Output units    : KM-D
Calendar mode   : Gregorian
Output type     : GEOMETRIC cartesian states
Output format   : 4 (position, LT, range, and range-rate)
Reference frame : Ecliptic of J2000.0
*******************************************************************************
            JDTDB,            Calendar Date (TDB),                      X,                      Y,                      Z,                     LT,                     RG,                     RR,
**************************************************************************************************************************************************************************************************
$$SOE
2459045.499305556, A.D. 2020-Jul-14 23:59:00.0000,  7.967734167845331E+07, -7.845948854683731E+07, -5.723107042518035E+06,  4.322793766521393E-03,  1.119692996950343E+08,  1.001915574625185E+06,
2459046.499305556, A.D. 2020-Jul-15 23:59:00.0000,  8.134130818834075E+07, -7.813807838943039E+07, -5.814239481652129E+06,  4.360325865868926E-03,  1.129414586984487E+08,  9.425478704711724E+05,
2459047.499305556, A.D. 2020-Jul-16 23:59:00.0000,  8.295067992607170E+07, -7.776402605771112E+07, -5.901500556680877E+06,  4.395582322592208E-03,  1.138546738510215E+08,  8.840156900871777E+05,
2459048.499305556, A.D. 2020-Jul-17 23:59:00.0000,  8.450569670934699E+07, -7.733882315984873E+07, -5.984924854961816E+06,  4.428594028413456E-03,  1.147097453122534E+08,  8.262493850231081E+05,
2459049.499305556, A.D. 2020-Jul-18 23:59:00.0000,  8.600656058246444E+07, -7.686386535164841E+07, -6.064543457576320E+06,  4.459389296861431E-03,  1.155074064611023E+08,  7.691847359777428E+05,
2459050.499305556, A.D. 2020-Jul-19 23:59:00.0000,  8.745337744302969E+07, -7.634048124609855E+07, -6.140403069963060E+06,  4.487992874307148E-03,  1.162482982797621E+08,  7.127001735642626E+05,
2459051.499305556, A.D. 2020-Jul-20 23:59:00.0000,  8.884627460125929E+07, -7.576990089086556E+07, -6.212528320257865E+06,  4.514428346489166E-03,  1.169330316876458E+08,  6.568595718173503E+05,
2459052.499305556, A.D. 2020-Jul-21 23:59:00.0000,  9.018540250182484E+07, -7.515326189873545E+07, -6.280921452102534E+06,  4.538718406683072E-03,  1.175621944875289E+08,  6.015502203998270E+05,
2459053.499305556, A.D. 2020-Jul-22 23:59:00.0000,  9.147081614481221E+07, -7.449165493446292E+07, -6.345600817551453E+06,  4.560882567585473E-03,  1.181362920986131E+08,  5.467208531173096E+05,
2459054.499305556, A.D. 2020-Jul-23 23:59:00.0000,  9.270253450546384E+07, -7.378610908419822E+07, -6.406581840621065E+06,  4.580938407512088E-03,  1.186557798356342E+08,  4.923224753022489E+05,
2459055.499305556, A.D. 2020-Jul-24 23:59:00.0000,  9.388054066370353E+07, -7.303759652223188E+07, -6.463877089130625E+06,  4.598901651347838E-03,  1.191210650056363E+08,  4.383080226020167E+05,
2459056.499305556, A.D. 2020-Jul-25 23:59:00.0000,  9.500478181545141E+07, -7.224703670530829E+07, -6.517496333359256E+06,  4.614786240190117E-03,  1.195325087118774E+08,  3.846321122621158E+05,
2459057.499305556, A.D. 2020-Jul-26 23:59:00.0000,  9.607516916509619E+07, -7.141530020014022E+07, -6.567446594925303E+06,  4.628604391911287E-03,  1.198904274225228E+08,  3.312508206273667E+05,
2459058.499305556, A.D. 2020-Jul-27 23:59:00.0000,  9.709157771301952E+07, -7.054321216793424E+07, -6.613732181520093E+06,  4.640366653341283E-03,  1.201950943222824E+08,  2.781214703610097E+05,
2459059.499305556, A.D. 2020-Jul-28 23:59:00.0000,  9.805384590846269E+07, -6.963155557145123E+07, -6.656354704659645E+06,  4.650081944453327E-03,  1.204467404569127E+08,  2.252024298739562E+05,
2459060.499305556, A.D. 2020-Jul-29 23:59:00.0000,  9.896177519477449E+07, -6.868107410541093E+07, -6.695313115019362E+06,  4.657757595291770E-03,  1.206455556897235E+08,  1.724529361919510E+05,
2459061.499305556, A.D. 2020-Jul-30 23:59:00.0000,  9.981512942129163E+07, -6.769247492037240E+07, -6.730603687899351E+06,  4.663399376153265E-03,  1.207916894833333E+08,  1.198329221764460E+05,
2459062.499305556, A.D. 2020-Jul-31 23:59:00.0000,  1.006136341276571E+08, -6.666643113577148E+07, -6.762220022118270E+06,  4.667011521109262E-03,  1.208852515089502E+08,  6.730284492025156E+04,
2459063.499305556, A.D. 2020-Aug-01 23:59:00.0000,  1.013569756799664E+08, -6.560358419068764E+07, -6.790153023148723E+06,  4.668596745140093E-03,  1.209263120901805E+08,  1.482352550361668E+04,
2459064.499305556, A.D. 2020-Aug-02 23:59:00.0000,  1.020448003007006E+08, -6.450454604040208E+07, -6.814390916954361E+06,  4.668156256441920E-03,  1.209149025218037E+08, -3.764400395213556E+04,
2459065.499305556, A.D. 2020-Aug-03 23:59:00.0000,  1.026767127884675E+08, -6.336990117637010E+07, -6.834919036678001E+06,  4.665689756265704E-03,  1.208510150656017E+08, -9.013867860575570E+04,
2459066.499305556, A.D. 2020-Aug-04 23:59:00.0000,  1.032522753525147E+08, -6.220020864173433E+07, -6.851720055245034E+06,  4.661195445101724E-03,  1.207346031105509E+08, -1.426995239373885E+05,
2459067.499305556, A.D. 2020-Aug-05 23:59:00.0000,  1.037710060166497E+08, -6.099600382034173E+07, -6.864773726942725E+06,  4.654670010918165E-03,  1.205655808681766E+08, -1.953658320904787E+05,
2459068.499305556, A.D. 2020-Aug-06 23:59:00.0000,  1.042323769339336E+08, -5.975780024238689E+07, -6.874056863540251E+06,  4.646108617122162E-03,  1.203438230607197E+08, -2.481773166491176E+05,
2459069.499305556, A.D. 2020-Aug-07 23:59:00.0000,  1.046358124928424E+08, -5.848609127504505E+07, -6.879543252033461E+06,  4.635504883133624E-03,  1.200691644179586E+08, -3.011742767789281E+05,
2459070.499305556, A.D. 2020-Aug-08 23:59:00.0000,  1.049806871903753E+08, -5.718135177806513E+07, -6.881203555293445E+06,  4.622850858566304E-03,  1.197413990084451E+08, -3.543977639382774E+05,
